,ID,Address,Suburb,Price,Type,Date,Rooms,Bathroom,Car,Landsize,Age,Latitude,Longtitude,train_station_id,distance_to_train_station,travel_min_to_CBD,over_priced?,crime_A_average,crime_B_average,crime_C_average
305,ID825804750,27 Charles St,ABBOTSFORD,1030000,h,30/07/2016,2,1,1,172,89,-37.8086,144.9946,19977,272,12,-1,1202,5034,333
306,ID395284201,45 Bordeaux St,DONCASTER,1545000,h,29/04/2017,4,3,2,647,54,-37.7819,145.1184,20042,4163,30.75,-1,3327,11071,1069
307,ID331551729,81 Dalpura Cct,FRANKSTON,491000,h,27/05/2017,3,1,2,602,18,-38.13759,145.17054,19856,3555,68.2,-1,517,2973,288
308,ID516197166,4/6 Riverview Rd,ESSENDON,606000,u,12/11/2016,2,1,2,0,47,-37.7598,144.9128,20037,517,14.08333333,-1,1144,6845,375
309,ID464359271,31a Douglas St,ASHWOOD,1045000,u,4/3/2017,3,2,2,467,69,-37.8639,145.0968,19839,1288,31,-1,1672,10063,646
310,ID169959455,23 Cyprus St,LALOR,710500,h,8/7/2017,3,2,1,655,44,-37.67414,145.0205,20007,881,40.38461538,-1,1360,6408,691
311,ID272132093,112 Edgewater Bvd,MARIBYRNONG,865000,t,16/04/2016,3,2,2,151,9,-37.7855,144.8958,20025,1853,8.666666667,-1,610,1743,228
312,ID471577631,14 Beths St,BENTLEIGH,2700000,h,17/06/2017,4,4,2,673,84,-37.91888,145.04775,19939,958,33.08333333,-1,959,4476,324
313,ID579452288,125/33 Jeffcott St,WEST MELBOURNE,670000,u,8/7/2017,2,1,1,17,23,-37.8118,144.95259,19841,270,2,-1,647,2861,222
314,ID280520005,6 Shepherd St,SURREY HILLS,2100000,h,4/6/2016,3,2,2,1255,49,-37.8322,145.1056,19895,1079,27.66666667,-1,2403,5212,586
315,ID628794310,114 Shields St,FLEMINGTON,957000,h,22/05/2016,2,1,0,165,119,-37.7847,144.9341,20040,537,8.076923077,-1,1923,8979,620
316,ID227443300,2 Collett St,KENSINGTON,840000,h,15/07/2017,3,1,0,114,59,-37.78895,144.93351,20040,438,8.076923077,-1,288,712,75
317,ID573160883,6A Thistle St,SURREY HILLS,1600000,h,20/05/2017,4,1,2,600,133,-37.8327,145.0976,19895,958,27.66666667,-1,2532,5455,713
318,ID901265802,3/14 Rugby Rd,HUGHESDALE,455000,u,16/04/2016,2,1,2,0,59,-37.8942,145.0867,19917,701,28,-1,555,1129,160
319,ID412971383,18 William St,SEDDON,1270000,h,28/05/2016,4,1,1,352,129,-37.8059,144.8899,20024,402,10,-1,824,1890,159
320,ID664675051,3 Sheargold Ct,RESERVOIR,475000,h,18/06/2016,3,1,1,535,49,-37.692,144.9781,19961,1950,27,-1,824,1890,159
321,ID678545624,10 Whyte St,BRIGHTON,2385000,h,27/05/2017,4,3,2,373,39,-37.92465,144.9992,19950,905,35,-1,2897,11243,942
322,ID695404781,17 Findon St,MALVERN EAST,2200000,h,4/3/2017,4,2,2,541,29,-37.8717,145.0403,19943,670,22.11538462,0,717,1763,318
323,ID269433938,4/88 Addison St,ELWOOD,687000,u,8/4/2017,2,1,1,1912,49,-37.8795,144.98,19955,1397,25,0,1666,9333,523
324,ID342167975,91 MacEdon Rd,TEMPLESTOWE LOWER,1381000,h,27/05/2017,5,2,2,733,109,-37.7677,145.11371,19935,4814,32.25,-1,2532,5455,713
325,ID819572827,3/8 Forest St,COLLINGWOOD,560000,u,12/8/2017,2,1,1,0,44,-37.79627,144.99229,19975,373,15,-1,1097,5916,553
326,ID291674135,76 Newry St,FITZROY NORTH,1116000,h,3/9/2016,2,1,0,152,109,-37.791,144.9809,19974,1303,17.84615385,-1,1923,8979,620
327,ID579071954,7/75 Rosanna Rd,HEIDELBERG,490000,h,10/12/2016,2,1,1,187,39,-37.7518,145.0698,19935,994,32.25,-1,1144,6845,375
328,ID921266217,91 Market Rd,WERRIBEE,472000,h,3/6/2017,3,1,0,700,69,-37.89363,144.65693,19921,738,36.4,-1,98,190,19
329,ID836389529,18 Woodville St,BALWYN NORTH,1630000,h,13/05/2017,4,2,1,677,59,-37.7897,145.0922,19896,3511,29.66666667,-1,959,4476,324
330,ID164343253,105 Moreland Rd,COBURG,812000,h,8/10/2016,3,1,1,370,89,-37.7561,144.9718,19966,896,17,-1,1071,5783,419
331,ID414532398,249 Punt Rd,RICHMOND,905000,h,22/05/2016,4,1,0,254,129,-37.8201,144.9898,19908,444,10.56521739,-1,824,1890,159
332,ID899256405,1/15 Gilbertson St,ESSENDON,736000,u,23/04/2016,2,1,1,0,79,-37.7412,144.8974,20036,2177,16.08333333,0,1144,6845,375
333,ID183989896,3 Flannery Ct,OAK PARK,925000,h,15/10/2016,3,1,4,815,22,-37.7151,144.9062,20033,1386,23.08333333,-1,136,302,42
334,ID234307070,59 The Crescent,KENSINGTON,918000,t,8/10/2016,3,2,1,788,21,-37.7938,144.9186,20026,879,6.25,-1,271,771,74
335,ID868427578,16/373 South Rd,BRIGHTON EAST,775000,u,7/11/2016,2,1,1,112,59,-37.9306,145.0284,19937,843,37.09090909,-1,2744,10289,780
336,ID873643674,29 Traill St,NORTHCOTE,1700000,h,27/06/2016,5,3,1,450,89,-37.7701,144.9886,20016,588,22.72727273,-1,136,302,42
337,ID329596451,42 Junction Rd,BLACKBURN NORTH,1200000,h,15/07/2017,6,2,2,675,69,-37.80716,145.16504,19899,1729,36.66666667,-1,5,73,1
338,ID373372713,11/2 MacArthur Rd,PARKVILLE,734600,u,22/08/2016,2,2,1,2427,29,-37.7896,144.9584,19970,1079,10,-1,136,302,42
339,ID330683753,2/13 Motherwell St,SOUTH YARRA,465000,u,6/8/2016,1,1,1,0,49,-37.8456,145.0005,19947,183,16.83333333,0,1100,3636,457
340,ID801064508,78 Dickens St,ELWOOD,2200000,h,27/06/2016,4,3,2,348,119,-37.8748,144.9778,19956,1502,23,-1,1566,8895,491
341,ID923236347,40 Castleton Rd,VIEWBANK,820000,h,22/05/2016,3,2,2,628,59,-37.7314,145.0941,19983,2278,37.14285714,0,584,2731,211
342,ID134466906,57 Crevelli St,RESERVOIR,560000,h,1/7/2017,2,1,1,198,59,-37.72874,145.02988,20011,2387,31.6,-1,885,1901,227
343,ID571592854,8 Grand Bvd,MONTMORENCY,881100,h,12/8/2017,3,2,4,786,59,-37.72532,145.12488,19986,1154,47,-1,1471,7759,779
344,ID934247964,33 Schulz St,BENTLEIGH EAST,1010000,h,13/08/2016,4,1,2,658,69,-37.9343,145.0607,19937,2104,37.09090909,-1,925,4701,308
345,ID287902469,1 Meadowbank St,GLENROY,780000,h,6/5/2017,3,1,2,742,49,-37.702,144.9538,19961,471,27,0,1841,9184,533
346,ID668964057,4 Lysterfield Dr,GREENVALE,800000,h,8/7/2017,5,3,2,544,11,-37.61079,144.90823,20029,3247,35,-1,512,1119,175
347,ID583395115,403/120 Greville St,PRAHRAN,712500,u,28/05/2016,2,2,1,0,129,-37.8493,144.9908,19958,86,20,-1,659,5219,338
348,ID144152435,36 Charlotte St,RICHMOND,1421000,h,12/11/2016,2,1,0,196,19,-37.8254,145,19907,281,11.8,-1,824,1890,159
349,ID301991501,14 Musk Ct,MELTON,295000,h,27/05/2017,3,1,4,600,44,-37.68734,144.58001,19980,1894,32.77777778,-1,50,68,12
350,ID341071781,403/99 Nott St,PORT MELBOURNE,455500,u,24/09/2016,1,1,1,0,17,-37.8405,144.9385,22180,2756,0,-1,659,5219,338
351,ID431715216,122 Blackwood St,YARRAVILLE,1606000,h,26/07/2016,4,2,3,455,129,-37.8177,144.8839,19996,569,13.18181818,-1,703,1502,135
352,ID906755071,88 Victoria St,FOOTSCRAY,875000,h,18/03/2017,3,1,0,262,39,-37.8022,144.8924,20024,88,10,-1,298,735,154
353,ID128559654,2/79 Mimosa Rd,CARNEGIE,855000,t,16/04/2016,2,1,1,158,25,-37.8886,145.052,19920,635,21.90909091,-1,3703,18944,2039
354,ID783766754,7/122 Glen Huntly Rd,ELWOOD,510000,u,11/3/2017,2,1,1,0,69,-37.8831,144.9896,19955,942,25,-1,1666,9333,523
355,ID478509590,48a Purtell St,BENTLEIGH EAST,800000,t,7/5/2016,3,2,1,353,49,-37.9262,145.055,19938,1719,35.08333333,-1,925,4701,308
356,ID966808499,229/253 Bridge Rd,RICHMOND,439000,u,10/9/2016,1,1,1,3516,8,-37.8183,144.9979,19978,681,10,0,824,1890,159
357,ID852830063,13 Cedar Dr,MARIBYRNONG,1200000,h,12/8/2017,3,2,2,352,22,-37.77413,144.87533,20022,3001,14,-1,717,1763,318
358,ID964410076,29 Whatley St,CARRUM,625000,h,29/07/2017,3,2,1,379,69,-38.07912,145.12965,19858,789,62.16666667,-1,990,3070,411
359,ID520344241,15 Killarney Rd,TEMPLESTOWE LOWER,1002000,h,24/09/2016,3,1,2,799,59,-37.7698,145.1028,19935,3968,32.25,-1,2403,5212,586
360,ID528302148,2/12 Moorong St,CHADSTONE,1042500,t,11/2/2017,4,3,2,209,3,-37.8805,145.105,19840,989,34.14285714,-1,1593,6648,530
361,ID406367581,1 Hornby St,BLACK ROCK,1720000,h,9/9/2017,4,2,2,659,69,-37.97951,145.02515,19866,2951,42.5,-1,2524,12864,738
362,ID609839975,5 Aroona Ct,ABERFELDIE,1680000,h,22/07/2017,3,2,2,673,54,-37.76316,144.89799,20037,1789,14.08333333,-1,817,1779,181
363,ID244050988,17 Packington Pl,PRAHRAN,1365000,h,26/08/2017,2,1,2,206,119,-37.85569,145.00522,19946,940,18.90909091,-1,705,5479,335
364,ID435676743,16A Waterloo St,CAMBERWELL,3300000,h,25/02/2017,3,3,2,417,3,-37.831,145.0621,19853,577,20.57142857,-1,3767,18925,2042
365,ID914752066,10 Port St,NEWPORT,807500,h,14/05/2016,3,1,3,647,49,-37.8481,144.8666,19994,1610,16.625,-1,71,261,20
366,ID371264026,1/27 Noordenne Av,SEAHOLME,312000,u,29/07/2017,1,1,0,0,49,-37.86007,144.84578,19927,963,24.25,-1,1021,5132,325
367,ID372671482,9 Talba Ct,CARRUM DOWNS,552500,h,12/8/2017,3,2,2,779,31,-38.11471,145.18248,19856,4206,68.2,-1,990,3070,411
368,ID408801431,12a Doyle St,AVONDALE HEIGHTS,622000,u,1/7/2017,3,1,1,204,59,-37.76215,144.85986,20004,3542,20.11111111,-1,1672,10063,646
369,ID554529351,89 Armstrong St,MIDDLE PARK,3750000,h,27/05/2017,3,2,1,411,44,-37.85327,144.96223,19958,2464,20,-1,313,545,65
370,ID813377537,19 Hall St,COBURG,900000,h,15/07/2017,3,1,0,227,99,-37.75296,144.95967,19966,254,17,-1,1097,5916,553
371,ID815818362,2/20 Talmage St,ALBION,340000,t,29/07/2017,2,1,1,100,39,-37.77956,144.82519,20004,217,20.11111111,-1,298,735,154
372,ID785248073,23A Havelock St,ST KILDA,1120000,h,8/4/2017,2,1,0,135,89,-37.8661,144.9802,19956,1229,23,-1,1412,6364,699
373,ID314197476,6/285 Barkly St,ST KILDA,450000,u,18/06/2016,1,1,1,0,10,-37.8731,144.9799,19956,1262,23,-1,1363,6287,564
374,ID846722921,4 Burgess St,RICHMOND,1405000,h,27/11/2016,3,1,2,212,19,-37.8302,144.9993,19907,466,11.8,-1,824,1890,159
375,ID737266034,64 Pilgrim St,SEDDON,880000,h,15/10/2016,3,1,0,216,129,-37.8052,144.8941,20024,379,10,-1,824,1890,159
376,ID869482129,31 Elizabeth St,COBURG,820000,h,10/12/2016,2,1,1,597,59,-37.7402,144.9807,19965,1547,19,0,1071,5783,419
377,ID233620773,2A Kerr St,BLACKBURN,881000,t,19/08/2017,3,1,1,300,59,-37.81156,145.14057,19897,1026,32.75,-1,990,3070,411
378,ID835083826,28 Flinders St,BULLEEN,903000,h,26/07/2016,2,1,1,591,54,-37.7679,145.0978,19935,3481,32.25,-1,958,5673,628
379,ID251023303,10/352 Canterbury Rd,ST KILDA,500000,u,4/3/2017,2,1,1,5530,18,-37.859,144.9767,19957,1387,21,-1,1412,6364,699
380,ID779335383,1/40 Warmington Rd,SUNSHINE WEST,305000,h,27/06/2016,3,1,2,367,49,-37.8018,144.8246,22241,1646,12.09090909,-1,2403,5212,586
